NORAD_CAT_ID,OBJECT_NAME,OBJECT_TYPE,EPOCH,MEAN_MOTION,ECCENTRICITY,INCLINATION,RA_OF_ASC_NODE,ARG_OF_PERICENTER,MEAN_ANOMALY,BSTAR,MEAN_MOTION_DOT,MEAN_MOTION_DDOT,TLE_LINE0,TLE_LINE1,TLE_LINE2,SEMIMAJOR_AXIS,PERIOD,APOGEE,PERIGEE,DECAYED
53178.0,STARLINK-4280,PAYLOAD,2024-02-19 21:43:28,15.08838754,0.0001313,53.2161,285.547,92.1022,268.012,6.1121e-05,6.85e-06,0.0,0 STARLINK-4280,1 53178U 22083AY  24050.90519215  .00000685  00000-0  61121-4 0  9996,2 53178  53.2161 285.5470 0001313  92.1022 268.0120 15.08838754 88306,6917.884,95.438,540.658,538.841,0.0
53178.0,STARLINK-4280,PAYLOAD,2024-02-20 00:54:14,15.08844277,0.0001282,53.2159,284.9522,88.0657,272.0482,0.00011091,1.478e-05,0.0,0 STARLINK-4280,1 53178U 22083AY  24051.03766772  .00001478  00000-0  11091-3 0  9994,2 53178  53.2159 284.9522 0001282  88.0657 272.0482 15.08844277 88951,6917.867,95.437,540.619,538.845,0.0
53178.0,STARLINK-4280,PAYLOAD,2024-02-20 08:51:09,15.08847409,0.0001278,53.2171,283.4661,88.863,271.2509,0.00014757,2.062e-05,0.0,0 STARLINK-4280,1 53178U 22083AY  24051.36886502  .00002062  00000-0  14757-3 0  9996,2 53178  53.2171 283.4661 0001278  88.8630 271.2509 15.08847409 88374,6917.858,95.437,540.607,538.839,0.0
53178.0,STARLINK-4280,PAYLOAD,2024-02-20 21:34:13,15.08861798,0.0001285,53.2158,281.0857,90.3481,269.7659,0.00016018,2.264e-05,0.0,0 STARLINK-4280,1 53178U 22083AY  24051.89877233  .00002264  00000-0  16018-3 0  9991,2 53178  53.2158 281.0857 0001285  90.3481 269.7659 15.08861798 88454,6917.814,95.436,540.568,538.79,0.0
53178.0,STARLINK-4280,PAYLOAD,2024-02-21 00:44:59,15.0886637,0.0001335,53.2162,280.4906,91.2857,268.8288,0.00019912,2.885e-05,0.0,0 STARLINK-4280,1 53178U 22083AY  24052.03124766  .00002885  00000-0  19912-3 0  9999,2 53178  53.2162 280.4906 0001335  91.2857 268.8288 15.08866370 89102,6917.8,95.436,540.588,538.741,0.0
53178.0,STARLINK-4280,PAYLOAD,2024-02-21 08:41:56,15.08851514,0.0001156,53.2169,279.0045,93.939,266.1734,6.2623e-05,7.09e-06,0.0,0 STARLINK-4280,1 53178U 22083AY  24052.36245775  .00000709  00000-0  62623-4 0  9990,2 53178  53.2169 279.0045 0001156  93.9390 266.1734 15.08851514 89155,6917.845,95.437,540.51,538.91,0.0
53178.0,STARLINK-4280,PAYLOAD,2024-02-21 19:49:39,15.0884347,0.0001302,53.2173,276.922,94.6918,265.4223,9.9945e-05,1.303e-05,0.0,0 STARLINK-4280,1 53178U 22083AY  24052.82614610  .00001303  00000-0  99945-4 0  9997,2 53178  53.2173 276.9220 0001302  94.6918 265.4223 15.08843470 89223,6917.87,95.437,540.635,538.834,0.0
53178.0,STARLINK-4280,PAYLOAD,2024-02-21 21:25:02,15.08847941,0.00014,53.2167,276.6253,100.2232,259.8918,9.4803e-06,-1.37e-06,0.0,0 STARLINK-4280,1 53178U 22083AY  24052.89238582 -.00000137  00000-0  94803-5 0  9998,2 53178  53.2167 276.6253 0001400 100.2232 259.8918 15.08847941 88607,6917.856,95.437,540.69,538.753,0.0
53178.0,STARLINK-4280,PAYLOAD,2024-02-22 21:15:48,15.08853587,0.00013,53.2164,272.1677,94.2387,265.8754,-9.5052e-05,-1.801e-05,0.0,0 STARLINK-4280,1 53178U 22083AY  24053.88597905 -.00001801  00000-0 -95052-4 0  9991,2 53178  53.2164 272.1677 0001300  94.2387 265.8754 15.08853587 88751,6917.839,95.437,540.603,538.805,0.0
53178.0,STARLINK-4280,PAYLOAD,2024-02-23 21:06:36,15.08834516,0.0001272,53.2165,267.7051,97.7971,262.3165,2.8769e-05,1.7e-06,0.0,0 STARLINK-4280,1 53178U 22083AY  24054.87958757  .00000170  00000-0  28769-4 0  9994,2 53178  53.2165 267.7051 0001272  97.7971 262.3165 15.08834516 89539,6917.897,95.438,540.642,538.882,0.0
53178.0,STARLINK-4280,PAYLOAD,2024-02-24 06:38:55,15.08836013,0.0001179,53.2159,265.9203,94.0357,266.077,4.896e-05,4.91e-06,0.0,0 STARLINK-4280,1 53178U 22083AY  24055.27702765  .00000491  00000-0  48960-4 0  9996,2 53178  53.2159 265.9203 0001179  94.0357 266.0770 15.08836013 88968,6917.893,95.438,540.573,538.942,0.0
53178.0,STARLINK-4280,PAYLOAD,2024-02-24 22:32:45,15.08847323,0.0001217,53.2159,262.9461,98.6,261.513,8.0325e-05,9.91e-06,0.0,0 STARLINK-4280,1 53178U 22083AY  24055.93942067  .00000991  00000-0  80325-4 0  9996,2 53178  53.2159 262.9461 0001217  98.6000 261.5130 15.08847323 89067,6917.858,95.437,540.565,538.881,0.0
53178.0,STARLINK-4280,PAYLOAD,2024-02-25 00:08:09,15.08847343,0.0001207,53.2153,262.6485,89.0336,271.0794,9.8876e-05,1.286e-05,0.0,0 STARLINK-4280,1 53178U 22083AY  24056.00566048  .00001286  00000-0  98876-4 0  9994,2 53178  53.2153 262.6485 0001207  89.0336 271.0794 15.08847343 89704,6917.858,95.437,540.558,538.888,0.0
53178.0,STARLINK-4280,PAYLOAD,2024-02-25 06:29:42,15.08828667,0.0001157,53.2156,261.4588,93.2423,266.8702,0.0003163,4.748e-05,0.0,0 STARLINK-4280,1 53178U 22083AY  24056.27062934  .00004748  00000-0  31630-3 0  9998,2 53178  53.2156 261.4588 0001157  93.2423 266.8702 15.08828667 89749,6917.915,95.438,540.58,538.98,0.0
53178.0,STARLINK-4280,PAYLOAD,2024-02-25 19:12:46,15.08844611,0.0001228,53.2159,259.079,76.5886,283.5243,0.00015964,2.254e-05,0.0,0 STARLINK-4280,1 53178U 22083AY  24056.80054186  .00002254  00000-0  15964-3 0  9999,2 53178  53.2159 259.0790 0001228  76.5886 283.5243 15.08844611 89828,6917.866,95.437,540.581,538.882,0.0
53178.0,STARLINK-4280,PAYLOAD,2024-02-25 20:48:09,15.08846368,0.0001241,53.2162,258.7817,76.4226,283.6905,0.000175,2.499e-05,0.0,0 STARLINK-4280,1 53178U 22083AY  24056.86678085  .00002499  00000-0  17500-3 0  9994,2 53178  53.2162 258.7817 0001241  76.4226 283.6905 15.08846368 89209,6917.861,95.437,540.584,538.867,0.0
53178.0,STARLINK-4280,PAYLOAD,2024-02-25 23:58:56,15.0884753,0.0001247,53.2161,258.187,76.499,283.6141,0.000182,2.61e-05,0.0,0 STARLINK-4280,1 53178U 22083AY  24056.99925999  .00002610  00000-0  18200-3 0  9990,2 53178  53.2161 258.1870 0001247  76.4990 283.6141 15.08847530 89221,6917.857,95.437,540.585,538.86,0.0
53178.0,STARLINK-4280,PAYLOAD,2024-02-26 19:03:34,15.08835916,0.0001322,53.2167,254.6186,88.3367,271.7777,2.4496e-05,1.02e-06,0.0,0 STARLINK-4280,1 53178U 22083AY  24057.79415191  .00000102  00000-0  24496-4 0  9996,2 53178  53.2167 254.6186 0001322  88.3367 271.7777 15.08835916 89972,6917.893,95.438,540.672,538.843,0.0
53178.0,STARLINK-4280,PAYLOAD,2024-02-26 22:14:20,15.08833516,0.0001401,53.2155,254.0238,72.3982,287.7163,-4.5258e-05,-1.008e-05,0.0,0 STARLINK-4280,1 53178U 22083AY  24057.92662955 -.00001008  00000-0 -45258-4 0  9990,2 53178  53.2155 254.0238 0001401  72.3982 287.7163 15.08833516 89368,6917.9,95.438,540.734,538.796,0.0
53178.0,STARLINK-4280,PAYLOAD,2024-02-27 12:32:49,15.08836287,0.0001236,53.2149,251.3475,80.7436,279.3696,2.6087e-05,1.27e-06,0.0,0 STARLINK-4280,1 53178U 22083AY  24058.52278992  .00000127  00000-0  26087-4 0  9999,2 53178  53.2149 251.3475 0001236  80.7436 279.3696 15.08836287 89453,6917.892,95.438,540.612,538.902,0.0
53178.0,STARLINK-4280,PAYLOAD,2024-02-27 18:54:21,15.08841311,0.0001176,53.2144,250.1595,78.3499,281.7625,0.00011011,1.465e-05,0.0,0 STARLINK-4280,1 53178U 22083AY  24058.78774804  .00001465  00000-0  11011-3 0  9996,2 53178  53.2144 250.1595 0001176  78.3499 281.7625 15.08841311 89490,6917.876,95.437,540.555,538.928,0.0
53178.0,STARLINK-4280,PAYLOAD,2024-02-28 06:02:03,15.08845203,0.0001142,53.2145,248.0778,82.4978,277.6143,0.00016258,2.301e-05,0.0,0 STARLINK-4280,1 53178U 22083AY  24059.25142686  .00002301  00000-0  16258-3 0  9994,2 53178  53.2145 248.0778 0001142  82.4978 277.6143 15.08845203 89562,6917.864,95.437,540.52,538.939,0.0
53178.0,STARLINK-4280,PAYLOAD,2024-02-28 21:55:54,15.08847676,0.0001263,53.2144,245.1035,76.5479,283.5654,0.00031297,4.698e-05,0.0,0 STARLINK-4280,1 53178U 22083AY  24059.91382771  .00004698  00000-0  31297-3 0  9999,2 53178  53.2144 245.1035 0001263  76.5479 283.5654 15.08847676 89669,6917.857,95.437,540.596,538.848,0.0
53178.0,STARLINK-4280,PAYLOAD,2024-02-29 12:14:23,15.0883649,0.0001327,53.2147,242.4266,84.018,276.0964,0.00010493,1.382e-05,0.0,0 STARLINK-4280,1 53178U 22083AY  24060.50999223  .00001382  00000-0  10493-3 0  9994,2 53178  53.2147 242.4266 0001327  84.0180 276.0964 15.08836490 90386,6917.891,95.438,540.674,538.838,0.0
53178.0,STARLINK-4280,PAYLOAD,2024-02-29 21:46:41,15.08842316,0.0001325,53.2155,240.6412,97.0847,263.0296,1.2305e-05,-9.2e-07,0.0,0 STARLINK-4280,1 53178U 22083AY  24060.90742909 -.00000092  00000-0  12305-4 0  9998,2 53178  53.2155 240.6412 0001325  97.0847 263.0296 15.08842316 89814,6917.873,95.437,540.655,538.822,0.0
53178.0,STARLINK-4280,PAYLOAD,2024-03-01 18:26:42,15.08839326,0.0001249,53.2168,236.7754,110.6742,249.4384,0.00030768,4.612e-05,0.0,0 STARLINK-4280,1 53178U 22083AY  24061.76854363  .00004612  00000-0  30768-3 0  9994,2 53178  53.2168 236.7754 0001249 110.6742 249.4384 15.08839326 90572,6917.882,95.438,540.611,538.883,0.0
53178.0,STARLINK-4280,PAYLOAD,2024-03-02 16:42:06,15.08836312,0.0001411,53.2162,232.6129,112.7965,247.3177,2.8104e-05,1.59e-06,0.0,0 STARLINK-4280,1 53178U 22083AY  24062.69591117  .00000159  00000-0  28104-4 0  9996,2 53178  53.2162 232.6129 0001411 112.7965 247.3177 15.08836312 90713,6917.892,95.438,540.733,538.781,0.0
53178.0,STARLINK-4280,PAYLOAD,2024-03-03 14:57:30,15.08836998,0.0001438,53.2172,228.4555,107.7398,252.3751,-5.8447e-05,-1.218e-05,0.0,0 STARLINK-4280,1 53178U 22083AY  24063.62327413 -.00001218  00000-0 -58447-4 0  9998,2 53178  53.2172 228.4555 0001438 107.7398 252.3751 15.08836998 90223,6917.89,95.438,540.749,538.76,0.0
53178.0,STARLINK-4280,PAYLOAD,2024-03-03 19:43:40,15.08837766,0.0001334,53.2164,227.5604,86.3522,273.7623,2.2624e-05,7.2e-07,0.0,0 STARLINK-4280,1 53178U 22083AY  24063.82199339  .00000072  00000-0  22624-4 0  9997,2 53178  53.2164 227.5604 0001334  86.3522 273.7623 15.08837766 90257,6917.887,95.438,540.675,538.829,0.0
53178.0,STARLINK-4280,PAYLOAD,2024-03-04 03:40:35,15.08849304,0.0001226,53.2162,226.0736,94.1227,265.9905,0.0002711,4.03e-05,0.0,0 STARLINK-4280,1 53178U 22083AY  24064.15318814  .00004030  00000-0  27110-3 0  9997,2 53178  53.2162 226.0736 0001226  94.1227 265.9905 15.08849304 90936,6917.852,95.437,540.565,538.869,0.0
